HAWK-12A                
1 64623U 25138C   26197.56743014  .00001994  00000+0  10000-3 0  9991
2 64623  97.4414 199.8629 0015002  42.2297 318.0090 15.18408348 58321
HAWK-13A                
1 67392U 26004AF  26197.56967704  .00002105  00000+0  10276-3 0  9994
2 67392  97.4445 196.0238 0004271 213.1075 146.9893 15.19364565 28223
HAWK-13C                
1 67393U 26004AG  26197.56953001  .00002107  00000+0  10290-3 0  9998
2 67393  97.4592 196.4509 0004098 216.7478 143.3476 15.19361051 28220
HAWK-13B                
1 67396U 26004AK  26197.56943928  .00002069  00000+0  10106-3 0  9991
2 67396  97.4530 196.2725 0005372 218.2863 141.7991 15.19363397 28223
HAWK-14B                
1 68436U 26067W   26197.47649845  .00002161  00000+0  10824-3 0  9997
2 68436  97.4564 155.5106 0001414 355.0786   5.0434 15.18436727 16389
HAWK-14C                
1 68441U 26067AB  26197.41070225  .00002235  00000+0  11184-3 0  9999
2 68441  97.4501 155.3250 0002471  21.4097 338.7240 15.18434388 16378
HAWK-14A                
1 68448U 26067AJ  26197.67441641  .00002172  00000+0  10877-3 0  9996
2 68448  97.4625 155.8332 0003072  10.8634 349.2666 15.18439109 16415
