{"fetched_at":"2026-07-17T06:38:16.838Z","source":"https://celestrak.org/NORAD/elements/gp.php?NAME=HAWK&FORMAT=JSON","constellation":"hawkeye-360","records":[{"OBJECT_NAME":"HAWK-12A","OBJECT_ID":"2025-138C","EPOCH":"2026-07-16T13:37:05.964096","CLASSIFICATION_TYPE":"U","MEAN_MOTION":15.18408348,"ECCENTRICITY":0.0015002,"INCLINATION":97.4414,"RA_OF_ASC_NODE":199.8629,"ARG_OF_PERICENTER":42.2297,"MEAN_ANOMALY":318.009,"EPHEMERIS_TYPE":0,"NORAD_CAT_ID":64623,"ELEMENT_SET_NO":999,"REV_AT_EPOCH":5832,"BSTAR":0.0001,"MEAN_MOTION_DOT":0.00001994,"MEAN_MOTION_DDOT":0},{"OBJECT_NAME":"HAWK-13A","OBJECT_ID":"2026-004AF","EPOCH":"2026-07-16T13:40:20.096256","CLASSIFICATION_TYPE":"U","MEAN_MOTION":15.19364565,"ECCENTRICITY":0.0004271,"INCLINATION":97.4445,"RA_OF_ASC_NODE":196.0238,"ARG_OF_PERICENTER":213.1075,"MEAN_ANOMALY":146.9893,"EPHEMERIS_TYPE":0,"NORAD_CAT_ID":67392,"ELEMENT_SET_NO":999,"REV_AT_EPOCH":2822,"BSTAR":0.00010276,"MEAN_MOTION_DOT":0.00002105,"MEAN_MOTION_DDOT":0},{"OBJECT_NAME":"HAWK-13C","OBJECT_ID":"2026-004AG","EPOCH":"2026-07-16T13:40:07.392864","CLASSIFICATION_TYPE":"U","MEAN_MOTION":15.19361051,"ECCENTRICITY":0.0004098,"INCLINATION":97.4592,"RA_OF_ASC_NODE":196.4509,"ARG_OF_PERICENTER":216.7478,"MEAN_ANOMALY":143.3476,"EPHEMERIS_TYPE":0,"NORAD_CAT_ID":67393,"ELEMENT_SET_NO":999,"REV_AT_EPOCH":2822,"BSTAR":0.0001029,"MEAN_MOTION_DOT":0.00002107,"MEAN_MOTION_DDOT":0},{"OBJECT_NAME":"HAWK-13B","OBJECT_ID":"2026-004AK","EPOCH":"2026-07-16T13:39:59.553792","CLASSIFICATION_TYPE":"U","MEAN_MOTION":15.19363397,"ECCENTRICITY":0.0005372,"INCLINATION":97.453,"RA_OF_ASC_NODE":196.2725,"ARG_OF_PERICENTER":218.2863,"MEAN_ANOMALY":141.7991,"EPHEMERIS_TYPE":0,"NORAD_CAT_ID":67396,"ELEMENT_SET_NO":999,"REV_AT_EPOCH":2822,"BSTAR":0.00010106,"MEAN_MOTION_DOT":0.00002069,"MEAN_MOTION_DDOT":0},{"OBJECT_NAME":"HAWK-14B","OBJECT_ID":"2026-067W","EPOCH":"2026-07-16T11:26:09.466080","CLASSIFICATION_TYPE":"U","MEAN_MOTION":15.18436727,"ECCENTRICITY":0.0001414,"INCLINATION":97.4564,"RA_OF_ASC_NODE":155.5106,"ARG_OF_PERICENTER":355.0786,"MEAN_ANOMALY":5.0434,"EPHEMERIS_TYPE":0,"NORAD_CAT_ID":68436,"ELEMENT_SET_NO":999,"REV_AT_EPOCH":1638,"BSTAR":0.00010824,"MEAN_MOTION_DOT":0.00002161,"MEAN_MOTION_DDOT":0},{"OBJECT_NAME":"HAWK-14C","OBJECT_ID":"2026-067AB","EPOCH":"2026-07-16T09:51:24.674400","CLASSIFICATION_TYPE":"U","MEAN_MOTION":15.18434388,"ECCENTRICITY":0.0002471,"INCLINATION":97.4501,"RA_OF_ASC_NODE":155.325,"ARG_OF_PERICENTER":21.4097,"MEAN_ANOMALY":338.724,"EPHEMERIS_TYPE":0,"NORAD_CAT_ID":68441,"ELEMENT_SET_NO":999,"REV_AT_EPOCH":1637,"BSTAR":0.00011184,"MEAN_MOTION_DOT":0.00002235,"MEAN_MOTION_DDOT":0},{"OBJECT_NAME":"HAWK-14A","OBJECT_ID":"2026-067AJ","EPOCH":"2026-07-16T16:11:09.577824","CLASSIFICATION_TYPE":"U","MEAN_MOTION":15.18439109,"ECCENTRICITY":0.0003072,"INCLINATION":97.4625,"RA_OF_ASC_NODE":155.8332,"ARG_OF_PERICENTER":10.8634,"MEAN_ANOMALY":349.2666,"EPHEMERIS_TYPE":0,"NORAD_CAT_ID":68448,"ELEMENT_SET_NO":999,"REV_AT_EPOCH":1641,"BSTAR":0.00010877,"MEAN_MOTION_DOT":0.00002172,"MEAN_MOTION_DDOT":0}]}
